[{"OBJECT_NAME":"HST","OBJECT_ID":"1990-037B","EPOCH":"2026-03-09T03:50:04.164288","MEAN_MOTION":15.29473555,"ECCENTRICITY":0.00018372,"INCLINATION":28.4717,"RA_OF_ASC_NODE":43.6133,"ARG_OF_PERICENTER":120.9992,"MEAN_ANOMALY":239.0785,"EPHEMERIS_TYPE":0,"CLASSIFICATION_TYPE":"U","NORAD_CAT_ID":20580,"ELEMENT_SET_NO":999,"REV_AT_EPOCH":77323,"BSTAR":0.0003002261,"MEAN_MOTION_DOT":9.063e-5,"MEAN_MOTION_DDOT":0},{"OBJECT_NAME":"STARLINK-2720","OBJECT_ID":"2021-044R","EPOCH":"2026-03-09T19:39:02.293920","MEAN_MOTION":15.30186761,"ECCENTRICITY":0.00013368,"INCLINATION":53.1589,"RA_OF_ASC_NODE":113.2604,"ARG_OF_PERICENTER":89.4472,"MEAN_ANOMALY":270.6682,"EPHEMERIS_TYPE":0,"CLASSIFICATION_TYPE":"U","NORAD_CAT_ID":48653,"ELEMENT_SET_NO":999,"REV_AT_EPOCH":26384,"BSTAR":3.62317e-6,"MEAN_MOTION_DOT":-2.52e-6,"MEAN_MOTION_DDOT":0}]
